{
  "type": "FeatureCollection",
  "features": [
    {
      "type": "Feature",
      "properties": {
        "norad_id": 32209,
        "name": "FENGYUN 1C DEB",
        "group": "fengyun-1c-debris",
        "lat": 25.736972591629634,
        "lon": 118.7125235312983,
        "alt_km": 1231.0182767483602,
        "timestamp": "2025-12-12T16:50:33.430673+00:00",
        "meta_object_name": "FENGYUN 1C DEB",
        "meta_object_id": "1999-025CVF",
        "meta_epoch": "2025-12-11T02:40:28.814304",
        "meta_mean_motion": 13.4716101,
        "meta_eccentricity": 0.03331235,
        "meta_inclination": 99.4206,
        "meta_ra_of_asc_node": 292.6227,
        "meta_arg_of_pericenter": 29.3187,
        "meta_mean_anomaly": 332.6194,
        "meta_ephemeris_type": 0,
        "meta_classification_type": "U",
        "meta_norad_cat_id": 32209,
        "meta_element_set_no": 999,
        "meta_rev_at_epoch": 89954,
        "meta_bstar": 0.0038267004,
        "meta_mean_motion_dot": 3.226e-05,
        "meta_mean_motion_ddot": 0,
        "tle_line1": "1 32209U 99025CVF 25345.11144461  .00003226  00000+0  38267-2 0  9992",
        "tle_line2": "2 32209  99.4206 292.6227 0333123  29.3187 332.6194 13.47161010899540"
      },
      "geometry": {
        "type": "Point",
        "coordinates": [
          118.7125235312983,
          25.736972591629634
        ]
      }
    },
    {
      "type": "Feature",
      "properties": {
        "norad_id": 32212,
        "name": "FENGYUN 1C DEB",
        "group": "fengyun-1c-debris",
        "lat": -32.441686035522984,
        "lon": 89.54760412743288,
        "alt_km": 798.3556017001174,
        "timestamp": "2025-12-12T16:50:33.430684+00:00",
        "meta_object_name": "FENGYUN 1C DEB",
        "meta_object_id": "1999-025CVJ",
        "meta_epoch": "2025-12-12T05:27:47.664864",
        "meta_mean_motion": 14.40319948,
        "meta_eccentricity": 0.01379946,
        "meta_inclination": 99.5732,
        "meta_ra_of_asc_node": 82.8595,
        "meta_arg_of_pericenter": 80.0007,
        "meta_mean_anomaly": 311.5035,
        "meta_ephemeris_type": 0,
        "meta_classification_type": "U",
        "meta_norad_cat_id": 32212,
        "meta_element_set_no": 999,
        "meta_rev_at_epoch": 96054,
        "meta_bstar": 0.00070927237,
        "meta_mean_motion_dot": 2.459e-05,
        "meta_mean_motion_ddot": 0,
        "tle_line1": "1 32212U 99025CVJ 25346.22763501  .00002459  00000+0  70927-3 0  9998",
        "tle_line2": "2 32212  99.5732  82.8595 0137994  80.0007 311.5035 14.40319948960547"
      },
      "geometry": {
        "type": "Point",
        "coordinates": [
          89.54760412743288,
          -32.441686035522984
        ]
      }
    },
    {
      "type": "Feature",
      "properties": {
        "norad_id": 32214,
        "name": "FENGYUN 1C DEB",
        "group": "fengyun-1c-debris",
        "lat": 10.701330814855385,
        "lon": -165.95651405680186,
        "alt_km": 1014.6162022231174,
        "timestamp": "2025-12-12T16:50:33.430695+00:00",
        "meta_object_name": "FENGYUN 1C DEB",
        "meta_object_id": "1999-025CVL",
        "meta_epoch": "2025-12-12T00:38:51.787392",
        "meta_mean_motion": 13.90525289,
        "meta_eccentricity": 0.0188558,
        "meta_inclination": 99.0438,
        "meta_ra_of_asc_node": 11.6619,
        "meta_arg_of_pericenter": 41.1528,
        "meta_mean_anomaly": 350.1279,
        "meta_ephemeris_type": 0,
        "meta_classification_type": "U",
        "meta_norad_cat_id": 32214,
        "meta_element_set_no": 999,
        "meta_rev_at_epoch": 62412,
        "meta_bstar": 0.0062452,
        "meta_mean_motion_dot": 8.939e-05,
        "meta_mean_motion_ddot": 0,
        "tle_line1": "1 32214U 99025CVL 25346.02698828  .00008939  00000+0  62452-2 0  9999",
        "tle_line2": "2 32214  99.0438  11.6619 0188558  41.1528 350.1279 13.90525289624123"
      },
      "geometry": {
        "type": "Point",
        "coordinates": [
          -165.95651405680186,
          10.701330814855385
        ]
      }
    },
    {
      "type": "Feature",
      "properties": {
        "norad_id": 32218,
        "name": "FENGYUN 1C DEB",
        "group": "fengyun-1c-debris",
        "lat": 28.198558815596744,
        "lon": 175.79158225337366,
        "alt_km": 671.5686613025964,
        "timestamp": "2025-12-12T16:50:33.430705+00:00",
        "meta_object_name": "FENGYUN 1C DEB",
        "meta_object_id": "1999-025CVQ",
        "meta_epoch": "2025-12-12T07:37:31.029600",
        "meta_mean_motion": 14.55482491,
        "meta_eccentricity": 0.00631893,
        "meta_inclination": 98.8122,
        "meta_ra_of_asc_node": 180.1576,
        "meta_arg_of_pericenter": 68.7667,
        "meta_mean_anomaly": 109.1686,
        "meta_ephemeris_type": 0,
        "meta_classification_type": "U",
        "meta_norad_cat_id": 32218,
        "meta_element_set_no": 999,
        "meta_rev_at_epoch": 96226,
        "meta_bstar": 0.00125669,
        "meta_mean_motion_dot": 5.567e-05,
        "meta_mean_motion_ddot": 0,
        "tle_line1": "1 32218U 99025CVQ 25346.31772025  .00005567  00000+0  12567-2 0  9993",
        "tle_line2": "2 32218  98.8122 180.1576 0063189  68.7667 109.1686 14.55482491962262"
      },
      "geometry": {
        "type": "Point",
        "coordinates": [
          175.79158225337366,
          28.198558815596744
        ]
      }
    },
    {
      "type": "Feature",
      "properties": {
        "norad_id": 32221,
        "name": "FENGYUN 1C DEB",
        "group": "fengyun-1c-debris",
        "lat": -78.08761814453382,
        "lon": -177.78125293016208,
        "alt_km": 774.0037375765723,
        "timestamp": "2025-12-12T16:50:33.430716+00:00",
        "meta_object_name": "FENGYUN 1C DEB",
        "meta_object_id": "1999-025CVT",
        "meta_epoch": "2025-12-12T04:03:23.037696",
        "meta_mean_motion": 14.58693776,
        "meta_eccentricity": 0.01467626,
        "meta_inclination": 98.5654,
        "meta_ra_of_asc_node": 136.0721,
        "meta_arg_of_pericenter": 147.4855,
        "meta_mean_anomaly": 213.5489,
        "meta_ephemeris_type": 0,
        "meta_classification_type": "U",
        "meta_norad_cat_id": 32221,
        "meta_element_set_no": 999,
        "meta_rev_at_epoch": 97189,
        "meta_bstar": 0.00064497554,
        "meta_mean_motion_dot": 3.438e-05,
        "meta_mean_motion_ddot": 0,
        "tle_line1": "1 32221U 99025CVT 25346.16901664  .00003438  00000+0  64498-3 0  9999",
        "tle_line2": "2 32221  98.5654 136.0721 0146762 147.4855 213.5489 14.58693776971891"
      },
      "geometry": {
        "type": "Point",
        "coordinates": [
          -177.78125293016208,
          -78.08761814453382
        ]
      }
    },
    {
      "type": "Feature",
      "properties": {
        "norad_id": 32223,
        "name": "FENGYUN 1C DEB",
        "group": "fengyun-1c-debris",
        "lat": 9.73549722063082,
        "lon": -112.70463295957894,
        "alt_km": 852.3040540860002,
        "timestamp": "2025-12-12T16:50:33.430727+00:00",
        "meta_object_name": "FENGYUN 1C DEB",
        "meta_object_id": "1999-025CVV",
        "meta_epoch": "2025-12-12T04:20:53.532096",
        "meta_mean_motion": 14.20890687,
        "meta_eccentricity": 0.00468069,
        "meta_inclination": 98.8387,
        "meta_ra_of_asc_node": 65.245,
        "meta_arg_of_pericenter": 319.1378,
        "meta_mean_anomaly": 69.6947,
        "meta_ephemeris_type": 0,
        "meta_classification_type": "U",
        "meta_norad_cat_id": 32223,
        "meta_element_set_no": 999,
        "meta_rev_at_epoch": 64216,
        "meta_bstar": 0.0020402533,
        "meta_mean_motion_dot": 4.42e-05,
        "meta_mean_motion_ddot": 0,
        "tle_line1": "1 32223U 99025CVV 25346.18117514  .00004420  00000+0  20403-2 0  9995",
        "tle_line2": "2 32223  98.8387  65.2450 0046806 319.1378  69.6947 14.20890687642160"
      },
      "geometry": {
        "type": "Point",
        "coordinates": [
          -112.70463295957894,
          9.73549722063082
        ]
      }
    },
    {
      "type": "Feature",
      "properties": {
        "norad_id": 32224,
        "name": "FENGYUN 1C DEB",
        "group": "fengyun-1c-debris",
        "lat": -76.7657367615718,
        "lon": -20.014164916440617,
        "alt_km": 831.703094360314,
        "timestamp": "2025-12-12T16:50:33.430738+00:00",
        "meta_object_name": "FENGYUN 1C DEB",
        "meta_object_id": "1999-025CVW",
        "meta_epoch": "2025-12-11T07:43:35.963328",
        "meta_mean_motion": 14.34018256,
        "meta_eccentricity": 0.00771925,
        "meta_inclination": 98.9841,
        "meta_ra_of_asc_node": 296.2781,
        "meta_arg_of_pericenter": 70.5749,
        "meta_mean_anomaly": 290.3756,
        "meta_ephemeris_type": 0,
        "meta_classification_type": "U",
        "meta_norad_cat_id": 32224,
        "meta_element_set_no": 999,
        "meta_rev_at_epoch": 95703,
        "meta_bstar": 0.00053905647,
        "meta_mean_motion_dot": 1.51e-05,
        "meta_mean_motion_ddot": 0,
        "tle_line1": "1 32224U 99025CVW 25345.32194402  .00001510  00000+0  53906-3 0  9994",
        "tle_line2": "2 32224  98.9841 296.2781 0077192  70.5749 290.3756 14.34018256957037"
      },
      "geometry": {
        "type": "Point",
        "coordinates": [
          -20.014164916440617,
          -76.7657367615718
        ]
      }
    }
  ]
}